KINEIS-2D               
1 62930U 25028C   26200.12352413  .00000732  00000+0  11415-3 0  9994
2 62930  97.9269 251.9532 0004797 101.2046 258.9703 14.75775511 77429
KINEIS-2E               
1 62931U 25028D   26200.13211549  .00000635  00000+0  97048-4 0  9999
2 62931  97.8938 251.0839 0002111  91.7030 268.4422 14.77093269 77493
KINEIS-2A               
1 62932U 25028E   26200.14853148  .00000601  00000+0  10048-3 0  9995
2 62932  98.1285 255.5849 0005878  74.3186 285.8670 14.73456098 77313
KINEIS-2B               
1 62934U 25028G   26200.12591582  .00000585  00000+0  97674-4 0  9998
2 62934  97.9652 252.4067 0004678  64.9546 295.2147 14.73456489 77363
KINEIS-4E               
1 63300U 25056A   26200.32726231  .00000697  00000+0  11792-3 0  9990
2 63300  97.9072 323.3365 0002874  79.2075 280.9456 14.72309306 71854
KINEIS-4C               
1 63301U 25056B   26200.33958213  .00000716  00000+0  12087-3 0  9999
2 63301  97.9125 323.6004 0003115 197.0104 163.1000 14.72331293 71866
KINEIS-4D               
1 63302U 25056C   26200.34281500  .00000776  00000+0  13069-3 0  9996
2 63302  97.9047 323.5725 0001819 198.7444 161.3697 14.72209816 71860
KINEIS-4A               
1 63303U 25056D   26200.31020208  .00000703  00000+0  11885-3 0  9994
2 63303  97.9140 323.4969 0002356 145.5664 214.5697 14.72290206 71858
KINEIS-4B               
1 63304U 25056E   26200.29282255  .00000703  00000+0  11886-3 0  9995
2 63304  97.9152 323.5381 0005635 179.9251 180.1959 14.72334891 71844
