{"fetched_at":"2026-07-19T17:31:40.912Z","source":"https://celestrak.org/NORAD/elements/gp.php?NAME=KINEIS&FORMAT=JSON","constellation":"kineis","records":[{"OBJECT_NAME":"KINEIS-2D","OBJECT_ID":"2025-028C","EPOCH":"2026-07-19T02:57:52.484832","CLASSIFICATION_TYPE":"U","MEAN_MOTION":14.75775511,"ECCENTRICITY":0.00047974,"INCLINATION":97.9269,"RA_OF_ASC_NODE":251.9532,"ARG_OF_PERICENTER":101.2046,"MEAN_ANOMALY":258.9703,"EPHEMERIS_TYPE":0,"NORAD_CAT_ID":62930,"ELEMENT_SET_NO":999,"REV_AT_EPOCH":7742,"BSTAR":0.00011415076,"MEAN_MOTION_DOT":0.00000732,"MEAN_MOTION_DDOT":0},{"OBJECT_NAME":"KINEIS-2E","OBJECT_ID":"2025-028D","EPOCH":"2026-07-19T03:10:14.778336","CLASSIFICATION_TYPE":"U","MEAN_MOTION":14.77093269,"ECCENTRICITY":0.00021114,"INCLINATION":97.8938,"RA_OF_ASC_NODE":251.0839,"ARG_OF_PERICENTER":91.703,"MEAN_ANOMALY":268.4422,"EPHEMERIS_TYPE":0,"NORAD_CAT_ID":62931,"ELEMENT_SET_NO":999,"REV_AT_EPOCH":7749,"BSTAR":0.000097047975,"MEAN_MOTION_DOT":0.00000635,"MEAN_MOTION_DDOT":0},{"OBJECT_NAME":"KINEIS-2A","OBJECT_ID":"2025-028E","EPOCH":"2026-07-19T03:33:53.119872","CLASSIFICATION_TYPE":"U","MEAN_MOTION":14.73456098,"ECCENTRICITY":0.00058785,"INCLINATION":98.1285,"RA_OF_ASC_NODE":255.5849,"ARG_OF_PERICENTER":74.3186,"MEAN_ANOMALY":285.867,"EPHEMERIS_TYPE":0,"NORAD_CAT_ID":62932,"ELEMENT_SET_NO":999,"REV_AT_EPOCH":7731,"BSTAR":0.00010048346,"MEAN_MOTION_DOT":0.00000601,"MEAN_MOTION_DDOT":0},{"OBJECT_NAME":"KINEIS-2B","OBJECT_ID":"2025-028G","EPOCH":"2026-07-19T03:01:19.126848","CLASSIFICATION_TYPE":"U","MEAN_MOTION":14.73456489,"ECCENTRICITY":0.00046781,"INCLINATION":97.9652,"RA_OF_ASC_NODE":252.4067,"ARG_OF_PERICENTER":64.9546,"MEAN_ANOMALY":295.2147,"EPHEMERIS_TYPE":0,"NORAD_CAT_ID":62934,"ELEMENT_SET_NO":999,"REV_AT_EPOCH":7736,"BSTAR":0.000097674277,"MEAN_MOTION_DOT":0.00000585,"MEAN_MOTION_DDOT":0},{"OBJECT_NAME":"KINEIS-4E","OBJECT_ID":"2025-056A","EPOCH":"2026-07-19T07:51:15.463584","CLASSIFICATION_TYPE":"U","MEAN_MOTION":14.72309306,"ECCENTRICITY":0.00028749,"INCLINATION":97.9072,"RA_OF_ASC_NODE":323.3365,"ARG_OF_PERICENTER":79.2075,"MEAN_ANOMALY":280.9456,"EPHEMERIS_TYPE":0,"NORAD_CAT_ID":63300,"ELEMENT_SET_NO":999,"REV_AT_EPOCH":7185,"BSTAR":0.00011792007,"MEAN_MOTION_DOT":0.00000697,"MEAN_MOTION_DDOT":0},{"OBJECT_NAME":"KINEIS-4C","OBJECT_ID":"2025-056B","EPOCH":"2026-07-19T08:08:59.896032","CLASSIFICATION_TYPE":"U","MEAN_MOTION":14.72331293,"ECCENTRICITY":0.0003115,"INCLINATION":97.9125,"RA_OF_ASC_NODE":323.6004,"ARG_OF_PERICENTER":197.0104,"MEAN_ANOMALY":163.1,"EPHEMERIS_TYPE":0,"NORAD_CAT_ID":63301,"ELEMENT_SET_NO":999,"REV_AT_EPOCH":7186,"BSTAR":0.00012087476,"MEAN_MOTION_DOT":0.00000716,"MEAN_MOTION_DDOT":0},{"OBJECT_NAME":"KINEIS-4D","OBJECT_ID":"2025-056C","EPOCH":"2026-07-19T08:13:39.216000","CLASSIFICATION_TYPE":"U","MEAN_MOTION":14.72209816,"ECCENTRICITY":0.0001819,"INCLINATION":97.9047,"RA_OF_ASC_NODE":323.5725,"ARG_OF_PERICENTER":198.7444,"MEAN_ANOMALY":161.3697,"EPHEMERIS_TYPE":0,"NORAD_CAT_ID":63302,"ELEMENT_SET_NO":999,"REV_AT_EPOCH":7186,"BSTAR":0.00013068523,"MEAN_MOTION_DOT":0.00000776,"MEAN_MOTION_DDOT":0},{"OBJECT_NAME":"KINEIS-4A","OBJECT_ID":"2025-056D","EPOCH":"2026-07-19T07:26:41.459712","CLASSIFICATION_TYPE":"U","MEAN_MOTION":14.72290206,"ECCENTRICITY":0.00023567,"INCLINATION":97.914,"RA_OF_ASC_NODE":323.4969,"ARG_OF_PERICENTER":145.5664,"MEAN_ANOMALY":214.5697,"EPHEMERIS_TYPE":0,"NORAD_CAT_ID":63303,"ELEMENT_SET_NO":999,"REV_AT_EPOCH":7185,"BSTAR":0.00011884878,"MEAN_MOTION_DOT":0.00000703,"MEAN_MOTION_DDOT":0},{"OBJECT_NAME":"KINEIS-4B","OBJECT_ID":"2025-056E","EPOCH":"2026-07-19T07:01:39.868320","CLASSIFICATION_TYPE":"U","MEAN_MOTION":14.72334891,"ECCENTRICITY":0.0005635,"INCLINATION":97.9152,"RA_OF_ASC_NODE":323.5381,"ARG_OF_PERICENTER":179.9251,"MEAN_ANOMALY":180.1959,"EPHEMERIS_TYPE":0,"NORAD_CAT_ID":63304,"ELEMENT_SET_NO":999,"REV_AT_EPOCH":7184,"BSTAR":0.00011885689,"MEAN_MOTION_DOT":0.00000703,"MEAN_MOTION_DDOT":0}]}
